STARLINK-3086           
1 49178U 21082BA  26068.88503340 -.00000174  00000+0 -68269-5 0  9994
2 49178  69.9985 293.9514 0002948 264.3590  95.7233 14.98327420247161
BRO-14                  
1 60551U 24149CM  26068.80660918  .00001572  00000+0  14547-3 0  9995
2 60551  97.6931 146.3614 0007930  74.9836 285.2263 14.95926897 85130
